NORAD_CAT_ID,OBJECT_NAME,OBJECT_TYPE,EPOCH,MEAN_MOTION,ECCENTRICITY,INCLINATION,RA_OF_ASC_NODE,ARG_OF_PERICENTER,MEAN_ANOMALY,BSTAR,MEAN_MOTION_DOT,MEAN_MOTION_DDOT,TLE_LINE0,TLE_LINE1,TLE_LINE2,SEMIMAJOR_AXIS,PERIOD,APOGEE,PERIGEE,DECAYED
50179.0,STARLINK-3283,PAYLOAD,2023-04-22 04:52:35,15.0883506,4.61e-05,53.2167,293.9144,107.5746,252.5296,3.9754e-07,-2.81e-06,0.0,0 STARLINK-3283,1 50179U 21125Z   23112.20318720 -.00000281  00000-0  39754-6 0  9991,2 50179  53.2167 293.9144 0000461 107.5746 252.5296 15.08835060 77710,6917.895,95.438,540.079,539.442,0.0
50179.0,STARLINK-3283,PAYLOAD,2023-04-22 19:11:03,15.08842381,0.0001087,53.2159,291.2375,82.2305,277.881,0.00012719,1.737e-05,0.0,0 STARLINK-3283,1 50179U 21125Z   23112.79934729  .00001737  00000-0  12719-3 0  9993,2 50179  53.2159 291.2375 0001087  82.2305 277.8810 15.08842381 77315,6917.873,95.437,540.49,538.986,0.0
50179.0,STARLINK-3283,PAYLOAD,2023-04-23 11:04:55,15.08832352,9.47e-05,53.2165,288.2656,93.4941,266.616,5.1957e-05,5.39e-06,0.0,0 STARLINK-3283,1 50179U 21125Z   23113.46175453  .00000539  00000-0  51957-4 0  9996,2 50179  53.2165 288.2656 0000947  93.4941 266.6160 15.08832352 77416,6917.904,95.438,540.424,539.114,0.0
50179.0,STARLINK-3283,PAYLOAD,2023-04-24 04:34:09,15.08855865,0.0001274,53.2155,284.9928,87.983,272.1308,0.0002802,4.176e-05,0.0,0 STARLINK-3283,1 50179U 21125Z   23114.19038724  .00004176  00000-0  28020-3 0  9991,2 50179  53.2155 284.9928 0001274  87.9830 272.1308 15.08855865 77521,6917.832,95.437,540.578,538.816,0.0
50179.0,STARLINK-3283,PAYLOAD,2023-04-24 23:38:45,15.08875254,0.0001326,53.2149,281.4231,78.6326,281.4815,0.00058106,8.981e-05,0.0,0 STARLINK-3283,1 50179U 21125Z   23114.98524975  .00008981  00000-0  58106-3 0  9992,2 50179  53.2149 281.4231 0001326  78.6326 281.4815 15.08875254 77641,6917.773,95.435,540.555,538.72,0.0
50179.0,STARLINK-3283,PAYLOAD,2023-04-25 10:46:30,15.08789211,8.67e-05,53.216,279.3436,86.6107,273.4984,-0.00093419,-0.00015104,0.0,0 STARLINK-3283,1 50179U 21125Z   23115.44896777 -.00015104  00000-0 -93419-3 0  9999,2 50179  53.2160 279.3436 0000867  86.6107 273.4984 15.08789211 77715,6918.036,95.441,540.5,539.301,0.0
50179.0,STARLINK-3283,PAYLOAD,2023-04-26 10:37:18,15.08820037,4.62e-05,53.2153,274.8839,87.4937,272.6108,-2.996e-05,-7.64e-06,0.0,0 STARLINK-3283,1 50179U 21125Z   23116.44257248 -.00000764  00000-0 -29960-4 0  9991,2 50179  53.2153 274.8839 0000462  87.4937 272.6108 15.08820037 78357,6917.941,95.439,540.126,539.487,0.0
50179.0,STARLINK-3283,PAYLOAD,2023-04-26 20:09:35,15.08858544,9.22e-05,53.2162,273.0973,117.1872,242.9214,0.00022335,3.27e-05,0.0,0 STARLINK-3283,1 50179U 21125Z   23116.83999502  .00003270  00000-0  22335-3 0  9991,2 50179  53.2162 273.0973 0000922 117.1872 242.9214 15.08858544 78416,6917.824,95.436,540.327,539.051,0.0
50179.0,STARLINK-3283,PAYLOAD,2023-04-27 10:28:04,15.08852896,0.0001723,53.2171,270.4236,86.1702,273.9487,0.00017195,2.451e-05,0.0,0 STARLINK-3283,1 50179U 21125Z   23117.43616022  .00002451  00000-0  17195-3 0  9999,2 50179  53.2171 270.4236 0001723  86.1702 273.9487 15.08852896 78506,6917.841,95.437,540.898,538.514,0.0
50179.0,STARLINK-3283,PAYLOAD,2023-04-27 20:00:23,15.08851428,9.64e-05,53.2155,268.6368,120.3247,239.784,0.00066738,0.00010353,0.0,0 STARLINK-3283,1 50179U 21125Z   23117.83360330  .00010353  00000-0  66738-3 0  9998,2 50179  53.2155 268.6368 0000964 120.3247 239.7840 15.08851428 78079,6917.845,95.437,540.377,539.044,0.0
50179.0,STARLINK-3283,PAYLOAD,2023-04-28 11:54:14,15.08849374,8.54e-05,53.2174,265.6654,116.3321,243.7759,-9.9405e-05,-1.87e-05,0.0,0 STARLINK-3283,1 50179U 21125Z   23118.49599796 -.00001870  00000-0 -99405-4 0  9995,2 50179  53.2174 265.6654 0000854 116.3321 243.7759 15.08849374 78173,6917.852,95.437,540.308,539.126,0.0
50179.0,STARLINK-3283,PAYLOAD,2023-04-29 11:45:01,15.08843885,0.0001107,53.2152,261.2028,105.4772,254.6343,-9.8375e-05,-1.853e-05,0.0,0 STARLINK-3283,1 50179U 21125Z   23119.48959594 -.00001853  00000-0 -98375-4 0  9997,2 50179  53.2152 261.2028 0001107 105.4772 254.6343 15.08843885 78819,6917.869,95.437,540.499,538.968,0.0
50179.0,STARLINK-3283,PAYLOAD,2023-04-29 19:41:56,15.08851536,7.32e-05,53.2161,259.7153,105.808,254.2993,3.2624e-05,2.32e-06,0.0,0 STARLINK-3283,1 50179U 21125Z   23119.82078996  .00000232  00000-0  32624-4 0  9996,2 50179  53.2161 259.7153 0000732 105.8080 254.2993 15.08851536 78379,6917.845,95.437,540.217,539.204,0.0
50179.0,STARLINK-3283,PAYLOAD,2023-04-30 13:11:11,15.0884174,9.83e-05,53.2162,256.4445,102.0193,258.091,2.5768e-05,1.22e-06,0.0,0 STARLINK-3283,1 50179U 21125Z   23120.54943516  .00000122  00000-0  25768-4 0  9995,2 50179  53.2162 256.4445 0000983 102.0193 258.0910 15.08841740 78973,6917.875,95.437,540.42,539.06,0.0
50179.0,STARLINK-3283,PAYLOAD,2023-04-30 14:46:34,15.08841428,9.27e-05,53.217,256.1492,104.388,255.7215,2.9425e-05,1.81e-06,0.0,0 STARLINK-3283,1 50179U 21125Z   23120.61567550  .00000181  00000-0  29425-4 0  9992,2 50179  53.2170 256.1492 0000927 104.3880 255.7215 15.08841428 78499,6917.876,95.437,540.382,539.1,0.0
50179.0,STARLINK-3283,PAYLOAD,2023-05-01 13:01:59,15.08828597,6.3e-05,53.2176,251.9849,89.0275,271.079,3.2754e-05,2.34e-06,0.0,0 STARLINK-3283,1 50179U 21125Z   23121.54304835  .00000234  00000-0  32754-4 0  9998,2 50179  53.2176 251.9849 0000630  89.0275 271.0790 15.08828597 79124,6917.915,95.438,540.216,539.344,0.0
50179.0,STARLINK-3283,PAYLOAD,2023-05-01 14:37:22,15.08835637,7.02e-05,53.2164,251.6867,102.1427,257.9644,2.4255e-05,9.8e-07,0.0,0 STARLINK-3283,1 50179U 21125Z   23121.60928415  .00000098  00000-0  24255-4 0  9996,2 50179  53.2164 251.6867 0000702 102.1427 257.9644 15.08835637 78644,6917.894,95.438,540.244,539.273,0.0
50179.0,STARLINK-3283,PAYLOAD,2023-05-01 16:12:45,15.08839045,7.27e-05,53.2164,251.3893,100.5482,259.5592,5.2232e-05,5.44e-06,0.0,0 STARLINK-3283,1 50179U 21125Z   23121.67552147  .00000544  00000-0  52232-4 0  9990,2 50179  53.2164 251.3893 0000727 100.5482 259.5592 15.08839045 79143,6917.883,95.438,540.251,539.245,0.0
50179.0,STARLINK-3283,PAYLOAD,2023-05-02 14:28:08,15.08851831,6.35e-05,53.2154,247.2262,102.7089,257.3974,0.00022108,3.234e-05,0.0,0 STARLINK-3283,1 50179U 21125Z   23122.60287259  .00003234  00000-0  22108-3 0  9990,2 50179  53.2154 247.2262 0000635 102.7089 257.3974 15.08851831 78798,6917.844,95.437,540.149,539.27,0.0
50179.0,STARLINK-3283,PAYLOAD,2023-05-02 17:38:54,15.08858959,6.67e-05,53.2151,246.6313,94.6732,265.4336,0.00045697,6.996e-05,0.0,0 STARLINK-3283,1 50179U 21125Z   23122.73535111  .00006996  00000-0  45697-3 0  9993,2 50179  53.2151 246.6313 0000667  94.6732 265.4336 15.08858959 79302,6917.822,95.436,540.149,539.226,0.0
50179.0,STARLINK-3283,PAYLOAD,2023-05-03 01:35:50,15.08845296,6.67e-05,53.2159,245.1448,101.6603,258.4464,0.0002628,3.898e-05,0.0,0 STARLINK-3283,1 50179U 21125Z   23123.06655493  .00003898  00000-0  26280-3 0  9991,2 50179  53.2159 245.1448 0000667 101.6603 258.4464 15.08845296 78863,6917.864,95.437,540.191,539.268,0.0
50179.0,STARLINK-3283,PAYLOAD,2023-05-03 12:43:32,15.08838221,9.14e-05,53.2148,243.0637,95.6639,264.4457,4.7292e-06,-2.12e-06,0.0,0 STARLINK-3283,1 50179U 21125Z   23123.53023856 -.00000212  00000-0  47292-5 0  9991,2 50179  53.2148 243.0637 0000914  95.6639 264.4457 15.08838221 78931,6917.886,95.438,540.383,539.119,0.0
50179.0,STARLINK-3283,PAYLOAD,2023-05-03 17:29:42,15.08838689,8.6e-05,53.2149,242.1713,100.0307,260.0783,8.1816e-05,1.015e-05,0.0,0 STARLINK-3283,1 50179U 21125Z   23123.72895905  .00001015  00000-0  81816-4 0  9994,2 50179  53.2149 242.1713 0000860 100.0307 260.0783 15.08838689 79450,6917.884,95.438,540.344,539.154,0.0
50179.0,STARLINK-3283,PAYLOAD,2023-05-04 12:34:19,15.08845503,7.28e-05,53.2148,238.6021,107.2626,252.8445,0.00030006,4.492e-05,0.0,0 STARLINK-3283,1 50179U 21125Z   23124.52383927  .00004492  00000-0  30006-3 0  9995,2 50179  53.2148 238.6021 0000728 107.2626 252.8445 15.08845503 79577,6917.864,95.437,540.232,539.225,0.0
50179.0,STARLINK-3283,PAYLOAD,2023-05-04 14:09:42,15.08846383,7.26e-05,53.2151,238.3047,109.3126,250.7944,0.00032923,4.957e-05,0.0,0 STARLINK-3283,1 50179U 21125Z   23124.59007906  .00004957  00000-0  32923-3 0  9998,2 50179  53.2151 238.3047 0000726 109.3126 250.7944 15.08846383 79097,6917.861,95.437,540.228,539.224,0.0
50179.0,STARLINK-3283,PAYLOAD,2023-05-05 07:38:57,15.08838326,7.81e-05,53.2147,235.0369,64.8725,295.2348,0.00021813,3.185e-05,0.0,0 STARLINK-3283,1 50179U 21125Z   23125.31872540  .00003185  00000-0  21813-3 0  9991,2 50179  53.2147 235.0369 0000781  64.8725 295.2348 15.08838326 79207,6917.886,95.438,540.291,539.21,0.0
50179.0,STARLINK-3283,PAYLOAD,2023-05-05 12:25:07,15.08837615,7.27e-05,53.2148,234.1431,85.8655,274.242,0.00014442,2.011e-05,0.0,0 STARLINK-3283,1 50179U 21125Z   23125.51744547  .00002011  00000-0  14442-3 0  9995,2 50179  53.2148 234.1431 0000727  85.8655 274.2420 15.08837615 79728,6917.888,95.438,540.256,539.25,0.0
50179.0,STARLINK-3283,PAYLOAD,2023-05-06 13:51:17,15.08850037,7.19e-05,53.2151,229.3835,90.9669,269.1406,0.00019022,2.742e-05,0.0,0 STARLINK-3283,1 50179U 21125Z   23126.57728054  .00002742  00000-0  19022-3 0  9997,2 50179  53.2151 229.3835 0000719  90.9669 269.1406 15.08850037 79886,6917.85,95.437,540.212,539.217,0.0
50179.0,STARLINK-3283,PAYLOAD,2023-05-06 23:23:35,15.08849218,7.69e-05,53.2159,227.5999,87.7125,272.3955,0.00023099,3.391e-05,0.0,0 STARLINK-3283,1 50179U 21125Z   23126.97472011  .00003391  00000-0  23099-3 0  9990,2 50179  53.2159 227.5999 0000769  87.7125 272.3955 15.08849218 79458,6917.852,95.437,540.249,539.185,0.0
50179.0,STARLINK-3283,PAYLOAD,2023-05-07 12:06:41,15.08842715,6.96e-05,53.214,225.226,91.3603,268.7469,0.00013722,1.897e-05,0.0,0 STARLINK-3283,1 50179U 21125Z   23127.50464160  .00001897  00000-0  13722-3 0  9997,2 50179  53.2140 225.2260 0000696  91.3603 268.7469 15.08842715 79538,6917.872,95.437,540.219,539.256,0.0
